{"fetched_at":"2026-07-08T17:59:25.198Z","source":"https://celestrak.org/NORAD/elements/gp.php?GROUP=oneweb&FORMAT=JSON","constellation":"oneweb","records":[{"OBJECT_NAME":"ONEWEB-0207","OBJECT_ID":"2021-031AJ","EPOCH":"2026-07-07T19:20:47.319936","CLASSIFICATION_TYPE":"U","MEAN_MOTION":13.14504328,"ECCENTRICITY":0.0002137,"INCLINATION":87.8977,"RA_OF_ASC_NODE":285.5917,"ARG_OF_PERICENTER":92.2847,"MEAN_ANOMALY":267.8528,"EPHEMERIS_TYPE":0,"NORAD_CAT_ID":48242,"ELEMENT_SET_NO":999,"REV_AT_EPOCH":25100,"BSTAR":0.00051742,"MEAN_MOTION_DOT":0.00000205,"MEAN_MOTION_DDOT":0},{"OBJECT_NAME":"ONEWEB-0208","OBJECT_ID":"2021-031AK","EPOCH":"2026-07-07T17:04:55.954272","CLASSIFICATION_TYPE":"U","MEAN_MOTION":13.14502301,"ECCENTRICITY":0.0002326,"INCLINATION":87.897,"RA_OF_ASC_NODE":285.6163,"ARG_OF_PERICENTER":105.7108,"MEAN_ANOMALY":254.4278,"EPHEMERIS_TYPE":0,"NORAD_CAT_ID":48243,"ELEMENT_SET_NO":999,"REV_AT_EPOCH":25100,"BSTAR":0.00052811,"MEAN_MOTION_DOT":0.00000209,"MEAN_MOTION_DDOT":0},{"OBJECT_NAME":"ONEWEB-0200","OBJECT_ID":"2021-031AL","EPOCH":"2026-07-08T12:18:07.363008","CLASSIFICATION_TYPE":"U","MEAN_MOTION":13.1450206,"ECCENTRICITY":0.0002147,"INCLINATION":87.8984,"RA_OF_ASC_NODE":285.4449,"ARG_OF_PERICENTER":100.3221,"MEAN_ANOMALY":259.8151,"EPHEMERIS_TYPE":0,"NORAD_CAT_ID":48244,"ELEMENT_SET_NO":999,"REV_AT_EPOCH":25103,"BSTAR":-0.00019509,"MEAN_MOTION_DOT":-6e-7,"MEAN_MOTION_DDOT":0},{"OBJECT_NAME":"ONEWEB-0217","OBJECT_ID":"2021-031AM","EPOCH":"2026-07-08T12:40:57.246240","CLASSIFICATION_TYPE":"U","MEAN_MOTION":13.14502832,"ECCENTRICITY":0.0002351,"INCLINATION":87.898,"RA_OF_ASC_NODE":285.4463,"ARG_OF_PERICENTER":105.471,"MEAN_ANOMALY":254.6679,"EPHEMERIS_TYPE":0,"NORAD_CAT_ID":48245,"ELEMENT_SET_NO":999,"REV_AT_EPOCH":25098,"BSTAR":-0.00067366,"MEAN_MOTION_DOT":-0.00000237,"MEAN_MOTION_DDOT":0},{"OBJECT_NAME":"ONEWEB-0211","OBJECT_ID":"2021-045A","EPOCH":"2026-07-08T11:26:10.560768","CLASSIFICATION_TYPE":"U","MEAN_MOTION":13.16197551,"ECCENTRICITY":0.0002552,"INCLINATION":87.8994,"RA_OF_ASC_NODE":254.8359,"ARG_OF_PERICENTER":109.5143,"MEAN_ANOMALY":250.6264,"EPHEMERIS_TYPE":0,"NORAD_CAT_ID":48767,"ELEMENT_SET_NO":999,"REV_AT_EPOCH":24724,"BSTAR":0.00031753,"MEAN_MOTION_DOT":0.00000134,"MEAN_MOTION_DDOT":0},{"OBJECT_NAME":"ONEWEB-0223","OBJECT_ID":"2021-045B","EPOCH":"2026-07-08T09:55:05.951712","CLASSIFICATION_TYPE":"U","MEAN_MOTION":13.15548685,"ECCENTRICITY":0.0002188,"INCLINATION":87.9,"RA_OF_ASC_NODE":254.963,"ARG_OF_PERICENTER":109.4715,"MEAN_ANOMALY":250.6651,"EPHEMERIS_TYPE":0,"NORAD_CAT_ID":48768,"ELEMENT_SET_NO":999,"REV_AT_EPOCH":24719,"BSTAR":0.00044092,"MEAN_MOTION_DOT":0.00000179,"MEAN_MOTION_DDOT":0},{"OBJECT_NAME":"ONEWEB-0230","OBJECT_ID":"2021-045C","EPOCH":"2026-07-08T03:45:27.791424","CLASSIFICATION_TYPE":"U","MEAN_MOTION":13.15548218,"ECCENTRICITY":0.0001951,"INCLINATION":87.8984,"RA_OF_ASC_NODE":255.0261,"ARG_OF_PERICENTER":96.2384,"MEAN_ANOMALY":263.8968,"EPHEMERIS_TYPE":0,"NORAD_CAT_ID":48769,"ELEMENT_SET_NO":999,"REV_AT_EPOCH":24742,"BSTAR":0.00030451,"MEAN_MOTION_DOT":0.00000127,"MEAN_MOTION_DDOT":0},{"OBJECT_NAME":"ONEWEB-0237","OBJECT_ID":"2021-045D","EPOCH":"2026-07-08T10:47:34.459296","CLASSIFICATION_TYPE":"U","MEAN_MOTION":13.15548129,"ECCENTRICITY":0.0002424,"INCLINATION":87.8983,"RA_OF_ASC_NODE":254.9691,"ARG_OF_PERICENTER":99.1797,"MEAN_ANOMALY":260.9607,"EPHEMERIS_TYPE":0,"NORAD_CAT_ID":48770,"ELEMENT_SET_NO":999,"REV_AT_EPOCH":24718,"BSTAR":-0.00017627,"MEAN_MOTION_DOT":-5.4e-7,"MEAN_MOTION_DDOT":0},{"OBJECT_NAME":"ONEWEB-0235","OBJECT_ID":"2021-045E","EPOCH":"2026-07-08T10:11:03.491808","CLASSIFICATION_TYPE":"U","MEAN_MOTION":13.15550831,"ECCENTRICITY":0.000211,"INCLINATION":87.8999,"RA_OF_ASC_NODE":254.9618,"ARG_OF_PERICENTER":110.4112,"MEAN_ANOMALY":249.7245,"EPHEMERIS_TYPE":0,"NORAD_CAT_ID":48771,"ELEMENT_SET_NO":999,"REV_AT_EPOCH":24717,"BSTAR":0.00026918,"MEAN_MOTION_DOT":0.00000114,"MEAN_MOTION_DDOT":0},{"OBJECT_NAME":"ONEWEB-0242","OBJECT_ID":"2021-045F","EPOCH":"2026-07-08T10:01:56.803584","CLASSIFICATION_TYPE":"U","MEAN_MOTION":13.15548752,"ECCENTRICITY":0.0001935,"INCLINATION":87.9003,"RA_OF_ASC_NODE":254.9604,"ARG_OF_PERICENTER":102.6451,"MEAN_ANOMALY":257.4896,"EPHEMERIS_TYPE":0,"NORAD_CAT_ID":48772,"ELEMENT_SET_NO":999,"REV_AT_EPOCH":24721,"BSTAR":0.0001991,"MEAN_MOTION_DOT":8.8e-7,"MEAN_MOTION_DDOT":0},{"OBJECT_NAME":"ONEWEB-0241","OBJECT_ID":"2021-045G","EPOCH":"2026-07-08T11:33:11.528352","CLASSIFICATION_TYPE":"U","MEAN_MOTION":13.15549947,"ECCENTRICITY":0.000223,"INCLINATION":87.9003,"RA_OF_ASC_NODE":254.9616,"ARG_OF_PERICENTER":97.8794,"MEAN_ANOMALY":262.2589,"EPHEMERIS_TYPE":0,"NORAD_CAT_ID":48773,"ELEMENT_SET_NO":999,"REV_AT_EPOCH":24713,"BSTAR":0.00065845,"MEAN_MOTION_DOT":0.00000261,"MEAN_MOTION_DDOT":0},{"OBJECT_NAME":"ONEWEB-0243","OBJECT_ID":"2021-045H","EPOCH":"2026-07-08T10:29:19.365216","CLASSIFICATION_TYPE":"U","MEAN_MOTION":13.15550429,"ECCENTRICITY":0.0001684,"INCLINATION":87.899,"RA_OF_ASC_NODE":254.9853,"ARG_OF_PERICENTER":110.4505,"MEAN_ANOMALY":249.6806,"EPHEMERIS_TYPE":0,"NORAD_CAT_ID":48774,"ELEMENT_SET_NO":999,"REV_AT_EPOCH":24715,"BSTAR":-0.00038211,"MEAN_MOTION_DOT":-0.00000131,"MEAN_MOTION_DDOT":0},{"OBJECT_NAME":"ONEWEB-0222","OBJECT_ID":"2021-045J","EPOCH":"2026-07-08T10:05:20.946048","CLASSIFICATION_TYPE":"U","MEAN_MOTION":13.15547078,"ECCENTRICITY":0.0002185,"INCLINATION":87.8999,"RA_OF_ASC_NODE":254.9573,"ARG_OF_PERICENTER":105.4043,"MEAN_ANOMALY":254.7328,"EPHEMERIS_TYPE":0,"NORAD_CAT_ID":48775,"ELEMENT_SET_NO":999,"REV_AT_EPOCH":24719,"BSTAR":0.00017019,"MEAN_MOTION_DOT":7.7e-7,"MEAN_MOTION_DDOT":0},{"OBJECT_NAME":"ONEWEB-0244","OBJECT_ID":"2021-045K","EPOCH":"2026-07-08T10:43:00.897024","CLASSIFICATION_TYPE":"U","MEAN_MOTION":13.15548174,"ECCENTRICITY":0.0002024,"INCLINATION":87.9002,"RA_OF_ASC_NODE":254.9481,"ARG_OF_PERICENTER":102.4671,"MEAN_ANOMALY":257.6685,"EPHEMERIS_TYPE":0,"NORAD_CAT_ID":48776,"ELEMENT_SET_NO":999,"REV_AT_EPOCH":24776,"BSTAR":-0.00026015,"MEAN_MOTION_DOT":-8.5e-7,"MEAN_MOTION_DDOT":0},{"OBJECT_NAME":"ONEWEB-0247","OBJECT_ID":"2021-045L","EPOCH":"2026-07-07T16:23:13.661664","CLASSIFICATION_TYPE":"U","MEAN_MOTION":13.15548563,"ECCENTRICITY":0.0001836,"INCLINATION":87.8987,"RA_OF_ASC_NODE":255.1297,"ARG_OF_PERICENTER":122.6214,"MEAN_ANOMALY":237.5094,"EPHEMERIS_TYPE":0,"NORAD_CAT_ID":48777,"ELEMENT_SET_NO":999,"REV_AT_EPOCH":24710,"BSTAR":-0.00031991,"MEAN_MOTION_DOT":-0.00000108,"MEAN_MOTION_DDOT":0},{"OBJECT_NAME":"ONEWEB-0245","OBJECT_ID":"2021-045M","EPOCH":"2026-07-08T03:13:30.349056","CLASSIFICATION_TYPE":"U","MEAN_MOTION":13.15549447,"ECCENTRICITY":0.0002224,"INCLINATION":87.9,"RA_OF_ASC_NODE":255.0209,"ARG_OF_PERICENTER":101.7236,"MEAN_ANOMALY":258.4144,"EPHEMERIS_TYPE":0,"NORAD_CAT_ID":48778,"ELEMENT_SET_NO":999,"REV_AT_EPOCH":24713,"BSTAR":-0.00027461,"MEAN_MOTION_DOT":-9.1e-7,"MEAN_MOTION_DDOT":0}]}
