ONEWEB-0207             
1 48242U 21031AJ  26188.80610324  .00000205  00000+0  51742-3 0  9994
2 48242  87.8977 285.5917 0002137  92.2847 267.8528 13.14504328251007
ONEWEB-0208             
1 48243U 21031AK  26188.71175873  .00000209  00000+0  52811-3 0  9992
2 48243  87.8970 285.6163 0002326 105.7108 254.4278 13.14502301251008
ONEWEB-0200             
1 48244U 21031AL  26189.51258522 -.00000060  00000+0 -19509-3 0  9999
2 48244  87.8984 285.4449 0002147 100.3221 259.8151 13.14502060251031
ONEWEB-0217             
1 48245U 21031AM  26189.52844035 -.00000237  00000+0 -67366-3 0  9991
2 48245  87.8980 285.4463 0002351 105.4710 254.6679 13.14502832250988
ONEWEB-0211             
1 48767U 21045A   26189.47651112  .00000134  00000+0  31753-3 0  9996
2 48767  87.8994 254.8359 0002552 109.5143 250.6264 13.16197551247245
ONEWEB-0223             
1 48768U 21045B   26189.41326333  .00000179  00000+0  44092-3 0  9994
2 48768  87.9000 254.9630 0002188 109.4715 250.6651 13.15548685247198
ONEWEB-0230             
1 48769U 21045C   26189.15657166  .00000127  00000+0  30451-3 0  9994
2 48769  87.8984 255.0261 0001951  96.2384 263.8968 13.15548218247428
ONEWEB-0237             
1 48770U 21045D   26189.44970439 -.00000054  00000+0 -17627-3 0  9990
2 48770  87.8983 254.9691 0002424  99.1797 260.9607 13.15548129247182
ONEWEB-0235             
1 48771U 21045E   26189.42434597  .00000114  00000+0  26918-3 0  9997
2 48771  87.8999 254.9618 0002110 110.4112 249.7245 13.15550831247174
ONEWEB-0242             
1 48772U 21045F   26189.41801856  .00000088  00000+0  19910-3 0  9997
2 48772  87.9003 254.9604 0001935 102.6451 257.4896 13.15548752247212
ONEWEB-0241             
1 48773U 21045G   26189.48138343  .00000261  00000+0  65845-3 0  9990
2 48773  87.9003 254.9616 0002230  97.8794 262.2589 13.15549947247131
ONEWEB-0243             
1 48774U 21045H   26189.43702969 -.00000131  00000+0 -38211-3 0  9992
2 48774  87.8990 254.9853 0001684 110.4505 249.6806 13.15550429247153
ONEWEB-0222             
1 48775U 21045J   26189.42038132  .00000077  00000+0  17019-3 0  9996
2 48775  87.8999 254.9573 0002185 105.4043 254.7328 13.15547078247196
ONEWEB-0244             
1 48776U 21045K   26189.44653816 -.00000085  00000+0 -26015-3 0  9998
2 48776  87.9002 254.9481 0002024 102.4671 257.6685 13.15548174247766
ONEWEB-0247             
1 48777U 21045L   26188.68279701 -.00000108  00000+0 -31991-3 0  9996
2 48777  87.8987 255.1297 0001836 122.6214 237.5094 13.15548563247104
ONEWEB-0245             
1 48778U 21045M   26189.13437904 -.00000091  00000+0 -27461-3 0  9997
2 48778  87.9000 255.0209 0002224 101.7236 258.4144 13.15549447247131
